     2.10           NAVIGATION DATA                         RINEX VERSION / TYPE
SPIDER V4,0,0,3554                      2015 04 15 10:43    PGM / RUN BY / DATE 
   1.9558D-08  0.0000D+00 -5.9605D-08  1.1921D-07           ION ALPHA           
   1.3517D+05 -1.1469D+05  6.5536D+04 -2.6214D+05           ION BETA            
    4.656612873077D-09 1.332267629550D-14   503808     1830 DELTA-UTC: A0,A1,T,W
    16                                                      LEAP SECONDS        
                                                            END OF HEADER       
17 15 02 02 20 00  0.0-1.536640338600D-04-2.160049916711D-12 0.000000000000D+00
    2.100000000000D+01-1.250312500000D+02 4.143029919135D-09-2.470594556717D+00
   -6.388872861862D-06 1.005122449715D-02 5.492940545082D-06 5.153716018677D+03
    1.584000000000D+05 9.685754776001D-08-9.307560239415D-01-4.842877388000D-08
    9.712398079908D-01 2.774375000000D+02-2.040670261993D+00-7.915686772719D-09
   -2.592965286929D-10 1.000000000000D+00 1.830000000000D+03 0.000000000000D+00
    2.000000000000D+00 0.000000000000D+00-1.071020960808D-08 2.100000000000D+01
    1.584000000000D+05 0.000000000000D+00
18 15 02 02 20 00  0.0 3.767418675125D-04 2.728484105319D-12 0.000000000000D+00
    4.000000000000D+01 3.615625000000D+01 5.816313652929D-09-9.801077818575D-01
    2.222135663033D-06 1.565646007657D-02 5.457550287247D-06 5.153749662399D+03
    1.584000000000D+05-1.303851604462D-08 1.102372171209D+00 3.743916749954D-07
    9.249745526743D-01 2.565312500000D+02-1.992058794753D+00-8.778936688714D-09
    4.260891639518D-10 1.000000000000D+00 1.830000000000D+03 0.000000000000D+00
    2.000000000000D+00 0.000000000000D+00-1.117587089539D-08 4.000000000000D+01
    1.584000000000D+05 0.000000000000D+00
19 15 02 02 10 00  0.0-4.990166053176D-04-1.477928890381D-12 0.000000000000D+00
    7.200000000000D+01-1.199375000000D+02 4.397326058836D-09-2.249666676973D+00
   -6.409361958504D-06 1.091011508834D-02 6.146728992462D-06 5.153694910049D+03
    1.224000000000D+05 8.009374141693D-08-8.804606092556D-01-1.918524503708D-07
    9.683694632408D-01 2.642187500000D+02 5.170792938567D-01-7.998547602028D-09
   -1.460775111983D-10 1.000000000000D+00 1.830000000000D+03 0.000000000000D+00
    2.000000000000D+00 0.000000000000D+00-1.490116119385D-08 7.200000000000D+01
    1.224000000000D+05 0.000000000000D+00
20 15 02 02 15 59 44.0 2.854159101844D-04 4.092726157978D-12 0.000000000000D+00
    6.000000000000D+00 3.475000000000D+01 5.708094885648D-09 3.133003055479D+00
    1.730397343636D-06 5.827138782479D-03 5.695968866348D-06 5.155763433456D+03
    1.439840000000D+05 8.940696716309D-08 1.049752513240D+00-1.210719347000D-07
    9.261729107964D-01 2.493437500000D+02 1.236217657908D+00-8.494639658352D-09
    4.246605567193D-10 1.000000000000D+00 1.830000000000D+03 0.000000000000D+00
    2.000000000000D+00 0.000000000000D+00-8.381903171539D-09 6.000000000000D+00
    1.439840000000D+05 0.000000000000D+00
21 15 02 02 23 59 44.0-4.124641418457D-04-4.206412995700D-12 0.000000000000D+00
    4.000000000000D+00-5.921875000000D+01 4.641979245434D-09 2.126597580274D+00
   -3.274530172348D-06 2.212306740694D-02 1.246295869350D-05 5.153628484726D+03
    1.727840000000D+05 1.080334186554D-07 5.865774115894D-02-4.600733518600D-07
    9.339038637702D-01 1.220937500000D+02-1.952527472778D+00-7.779609845215D-09
    3.317995322938D-10 1.000000000000D+00 1.830000000000D+03 0.000000000000D+00
    2.000000000000D+00 0.000000000000D+00-1.164153218269D-08 4.000000000000D+00
    1.727840000000D+05 0.000000000000D+00
22 15 02 02 08 00  0.0 3.138873726130D-04 4.206412995700D-12 0.000000000000D+00
    3.000000000000D+01 2.646875000000D+01 5.679165138162D-09-1.481429683721D+00
    1.324340701103D-06 7.432029582560D-03 4.990026354790D-06 5.153695482254D+03
    1.152000000000D+05 1.899898052216D-07 1.104138697454D+00 8.381903171539D-08
    9.227630433218D-01 2.627500000000D+02-2.067476427629D+00-8.567499598655D-09
    2.075086491526D-10 1.000000000000D+00 1.830000000000D+03 0.000000000000D+00
    2.000000000000D+00 0.000000000000D+00-1.769512891769D-08 3.000000000000D+01
    1.152000000000D+05 0.000000000000D+00
23 15 02 02 14 00  0.0-8.599879220128D-05-2.614797267597D-12 0.000000000000D+00
    9.700000000000D+01-3.384375000000D+01 4.971278499966D-09-5.947577773859D-01
   -1.864507794380D-06 9.746294235811D-03 7.674098014832D-06 5.153663986206D+03
    1.368000000000D+05 1.769512891769D-07 2.173120739270D+00 8.940696716309D-08
    9.491515882706D-01 2.234062500000D+02-2.714978253445D+00-8.288917108246D-09
   -6.832427401626D-10 1.000000000000D+00 1.830000000000D+03 0.000000000000D+00
    2.000000000000D+00 0.000000000000D+00-2.002343535423D-08 9.700000000000D+01
    1.368000000000D+05 0.000000000000D+00
24 15 02 03 00 00  0.0-4.280265420675D-05-6.821210263297D-13 0.000000000000D+00
    6.900000000000D+01 7.918750000000D+01 4.405183329226D-09-2.286282021395D+00
    3.974884748459D-06 2.995589049533D-03 1.175887882710D-05 5.153693222046D+03
    1.728000000000D+05-3.725290298462D-09-3.083786348308D+00-7.823109626770D-08
    9.549791765673D-01 1.504062500000D+02 2.701178184399D-01-7.868185214477D-09
   -4.964492358872D-11 1.000000000000D+00 1.830000000000D+03 0.000000000000D+00
    2.800000000000D+00 0.000000000000D+00 2.328306436539D-09 6.900000000000D+01
    1.728000000000D+05 0.000000000000D+00
25 15 02 02 23 59 44.0-9.909272193909D-07-2.614797267597D-12 0.000000000000D+00
    0.000000000000D+00 8.325000000000D+01 4.428398536760D-09 1.984119122868D+00
    4.248693585396D-06 4.109257715754D-03 2.551823854446D-06 5.153728048325D+03
    1.727840000000D+05-1.341104507446D-07-2.023657583884D+00-3.539025783539D-08
    9.775896419497D-01 3.386875000000D+02 6.583490298282D-01-8.266773043886D-09
    2.339383131655D-10 1.000000000000D+00 1.830000000000D+03 0.000000000000D+00
    2.000000000000D+00 0.000000000000D+00 5.122274160385D-09 0.000000000000D+00
    1.727840000000D+05 0.000000000000D+00
27 15 02 02 08 00  0.0 4.858709871769D-05 2.614797267597D-12 0.000000000000D+00
    7.700000000000D+01-1.044062500000D+02 4.495187333475D-09-2.419390753290D+00
   -5.481764674187D-06 1.921281800605D-03 5.513429641724D-06 5.153689731598D+03
    1.152000000000D+05-5.029141902924D-08-9.774976434204D-01-7.636845111847D-08
    9.660678454492D-01 2.771250000000D+02 1.440143692451D-01-8.150339070312D-09
   -2.667968346248D-10 1.000000000000D+00 1.830000000000D+03 0.000000000000D+00
    2.000000000000D+00 0.000000000000D+00 1.862645149231D-09 7.700000000000D+01
    1.152000000000D+05 0.000000000000D+00
28 15 02 02 19 59 44.0 4.167854785919D-04 2.614797267597D-12 0.000000000000D+00
    1.100000000000D+01 5.996875000000D+01 4.039811152268D-09-1.680721910620D+00
    3.438442945480D-06 1.973589730915D-02 1.689419150352D-06 5.153689088821D+03
    1.583840000000D+05 2.812594175339D-07-1.954076606471D+00 3.445893526077D-07
    9.881174309658D-01 3.620937500000D+02-1.674166141683D+00-8.049621413875D-09
    1.085759537833D-10 1.000000000000D+00 1.830000000000D+03 0.000000000000D+00
    2.000000000000D+00 0.000000000000D+00-1.117587089539D-08 1.100000000000D+01
    1.583840000000D+05 0.000000000000D+00
29 15 02 02 23 59 44.0 5.897725932300D-04 2.387423592154D-12 0.000000000000D+00
    2.200000000000D+01-1.160937500000D+02 4.243748019661D-09 2.464437488548D+00
   -6.087124347687D-06 1.297164591961D-03 5.394220352173D-06 5.153565961838D+03
    1.727840000000D+05-9.313225746155D-09-9.216071932103D-01 4.284083843231D-08
    9.720515695296D-01 2.803125000000D+02-8.590544165732D-01-8.086765035387D-09
   -4.378753748480D-10 1.000000000000D+00 1.830000000000D+03 0.000000000000D+00
    2.000000000000D+00 0.000000000000D+00-9.778887033463D-09 2.200000000000D+01
    1.727840000000D+05 0.000000000000D+00
30 15 02 02 18 00  0.0-8.574640378356D-05 7.958078640513D-13 0.000000000000D+00
    3.000000000000D+01 9.915625000000D+01 4.245534146463D-09-1.228016152945D-02
    4.945322871208D-06 9.935720590875D-04 1.114979386330D-05 5.153622154236D+03
    1.512000000000D+05-9.313225746155D-09-2.993830079028D+00 7.450580596924D-09
    9.574324185033D-01 1.623750000000D+02 3.047202806262D+00-7.903900645090D-09
   -1.014327996596D-10 1.000000000000D+00 1.830000000000D+03 0.000000000000D+00
    2.000000000000D+00 0.000000000000D+00 3.259629011154D-09 3.000000000000D+01
    1.512000000000D+05 0.000000000000D+00
31 15 02 03 00 00  0.0 3.241607919335D-04-7.958078640513D-13 0.000000000000D+00
    1.500000000000D+01 9.209375000000D+01 3.935163750413D-09 3.044377316044D+00
    4.835426807404D-06 8.308719727211D-03 1.225620508194D-05 5.153730407715D+03
    1.728000000000D+05-7.636845111847D-08-3.037656825457D+00 1.359730958939D-07
    9.766466771400D-01 1.514687500000D+02-5.587124502162D-01-7.523884626437D-09
   -3.678724685985D-11 1.000000000000D+00 1.830000000000D+03 0.000000000000D+00
    2.000000000000D+00 0.000000000000D+00-1.350417733192D-08 1.500000000000D+01
    1.728000000000D+05 0.000000000000D+00
32 15 02 02 12 00  0.0-2.332855947316D-04 8.981260180008D-12 0.000000000000D+00
    1.500000000000D+01 2.256250000000D+01 5.187001939078D-09-2.676930400622D+00
    1.026317477226D-06 1.134295726661D-02 5.073845386505D-06 5.153575454712D+03
    1.296000000000D+05-2.719461917877D-07 1.202212642102D+00-7.823109626770D-08
    9.467807334921D-01 2.721562500000D+02 1.337035148881D-02-8.258915329407D-09
    1.850077036014D-10 1.000000000000D+00 1.830000000000D+03 0.000000000000D+00
    2.000000000000D+00 0.000000000000D+00-3.725290298462D-09 1.500000000000D+01
    1.296000000000D+05 0.000000000000D+00
